CCSDS_OEM_VERS = 2.0  
CREATION_DATE  = 2026-02-27T09:30:03
ORIGINATOR     = ESOC/OPS-GFA                            
 
 



META_START
OBJECT_NAME          = LISA                                    
OBJECT_ID            = -1000                                   
CENTER_NAME          = SUN                     
REF_FRAME            = EME2000 
TIME_SYSTEM          = TCB
START_TIME           = 2036-12-23T00:00:30.346418            
STOP_TIME            = 2047-09-06T07:29:40.637963            
INTERPOLATION        = HERMITE                                 
INTERPOLATION_DEGREE = 7                                       
META_STOP

2046-11-04T11:35:18.574469     1.42258653098222405e+08    4.36945072747588158e+07    1.92786269613107294e+07   -9.58865463469506984e+00    2.59077786384551203e+01    1.09688569315741091e+01   -5.58701168782039691e-06   -1.71593698975451914e-06   -7.57105278667685266e-07
2046-11-05T07:42:22.078214     1.41549579943669915e+08    4.55662745618825257e+07    2.00710170747404173e+07   -9.99232419607606559e+00    2.57808275161187055e+01    1.09128911988314758e+01   -5.56026985331169347e-06   -1.78980690816217999e-06   -7.88383343622547272e-07
2046-11-06T03:49:25.581959     1.40811342697612613e+08    4.74286541151700914e+07    2.08592720316575319e+07   -1.03940152291680157e+01    2.56485386378208950e+01    1.08546655762514490e+01   -5.53237472062028768e-06   -1.86333840266675319e-06   -8.19511831230662406e-07
2046-11-06T23:56:29.085704     1.40044087661660641e+08    4.92812602514542639e+07    2.16432285586515963e+07   -1.07936443785487803e+01    2.55109370688887012e+01    1.07941911322041548e+01   -5.50333102907540129e-06   -1.93651613949641277e-06   -8.50484242077448416e-07
2046-11-07T20:03:32.589449     1.39247967259939611e+08    5.11237092121391520e+07    2.24227242307270281e+07   -1.11911286386297704e+01    2.53680489838715744e+01    1.07314794051786979e+01   -5.47314369605744944e-06   -2.00932482063054214e-06   -8.81294092992367065e-07
2046-11-08T16:12:59.789206     1.38421474901913851e+08    5.29592431086033881e+07    2.31991301870424598e+07   -1.15871673457318050e+01    2.52196025105628934e+01    1.06664113550358604e+01   -5.44175504520547285e-06   -2.08189260993168934e-06   -9.11995593541033522e-07
2046-11-09T12:22:26.988963     1.37566326782960504e+08    5.47838139457607344e+07    2.39707336567186899e+07   -1.19808869682382966e+01    2.50659044557204957e+01    1.05991217349446014e+01   -5.40922915336198800e-06   -2.15405935291652457e-06   -9.42520959537459753e-07
2046-11-10T08:31:54.188720     1.36682694198864192e+08    5.65970417243333757e+07    2.47373739063306339e+07   -1.23722051915464171e+01    2.49069844722894231e+01    1.05296235594343912e+01   -5.37557188826258818e-06   -2.22580989348332688e-06   -9.72863773908568004e-07
2046-11-11T04:41:21.388477     1.35770754364457160e+08    5.83985485931402147e+07    2.54988911450486369e+07   -1.27610401337934185e+01    2.47428733115815369e+01    1.04579303080158095e+01   -5.34078931208033086e-06   -2.29712911802226167e-06   -1.00301763938537448e-06
2046-11-12T00:50:48.588234     1.34830690415904403e+08    6.01879589658424258e+07    2.62551265742779896e+07   -1.31473103606239015e+01    2.45736028197801915e+01    1.03840559235701022e+01   -5.30488769885047092e-06   -2.36800196646985358e-06   -1.03297618315250765e-06
2046-11-12T21:00:15.787991     1.33862691395496264e+08    6.19648996197357103e+07    2.70059224295831360e+07   -1.35309349010894255e+01    2.43992059337017189e+01    1.03080148104266733e+01   -5.26787354836058888e-06   -2.43841344176648792e-06   -1.06273306081265153e-06
2046-11-13T17:09:42.987748     1.32866952222502217e+08    6.37289997804577053e+07    2.77511220165576600e+07   -1.39118332644279548e+01    2.42197166759284492e+01    1.02298218321776826e+01   -5.22975359651068560e-06   -2.50834861772034800e-06   -1.09228195966756699e-06
2046-11-14T13:19:10.187505     1.31843673653645664e+08    6.54798911964606121e+07    2.84905697422934547e+07   -1.42899254574667385e+01    2.40351701494290282e+01    1.01494923092794167e+01   -5.19053482213345005e-06   -2.57779264527341590e-06   -1.12161660131364800e-06
2046-11-15T09:28:37.387263     1.30793062236758739e+08    6.72172082070994973e+07    2.92241111441025697e+07   -1.46651320023922693e+01    2.38456025317817364e+01    1.00670420164900545e+01   -5.15022445029324599e-06   -2.64673075717790495e-06   -1.15073074355572082e-06
2046-11-16T05:38:04.587020     1.29715330261177048e+08    6.89405878081865162e+07    2.99515929171450213e+07   -1.50373739546308833e+01    2.36510510691165585e+01    9.98248718019349113e+00   -5.10882995203225790e-06   -2.71514827106897679e-06   -1.17961818163289803e-06
2046-11-17T01:47:31.786776     1.28610695708433539e+08    7.06496697188612074e+07    3.06728629426161498e+07   -1.54065729205836295e+01    2.34515540698917491e+01    9.89584447565884062e+00   -5.06635904060893364e-06   -2.78303059095448255e-06   -1.20827274876555978e-06
2046-11-17T21:56:58.986533     1.27479382206811115e+08    7.23440964536274523e+07    3.13877703181468695e+07   -1.57726510749590538e+01    2.32471508986206317e+01    9.80713102428527428e+00   -5.02281966418631059e-06   -2.85036320710052195e-06   -1.23668831601417861e-06
2046-11-18T18:06:26.186290     1.26321618993313387e+08    7.40235134034068882e+07    3.20961653920702189e+07   -1.61355311774474437e+01    2.30378819696643617e+01    9.71636439088183934e+00   -4.97821999498720455e-06   -2.91713169432360849e-06   -1.26485879145469308e-06
2046-11-19T14:15:53.386047     1.25137640886613220e+08    7.56875689294597656e+07    3.27978998032076657e+07   -1.64951365884801788e+01    2.28237887412063856e+01    9.62356258103189255e+00   -4.93256841491660399e-06   -2.98332170868967483e-06   -1.29277811867059573e-06
2046-11-20T10:25:20.585805     1.23927688274538323e+08    7.73359144740227163e+07    3.34928265278286263e+07   -1.68513912838178506e+01    2.26049137095243324e+01    9.52874403859179431e+00   -4.88587349768424760e-06   -3.04891898262743349e-06   -1.32044027456489800e-06
2046-11-21T06:34:47.785562     1.22692007119653419e+08    7.89682046915145218e+07    3.41807999354365319e+07   -1.72042198677105880e+01    2.23813004036751266e+01    9.43192764337350553e+00   -4.83814398728400920e-06   -3.11390931840690073e-06   -1.34783926647064683e-06
2046-11-22T02:48:43.451585     1.21426136096043840e+08    8.05900445961337686e+07    3.48641813403301463e+07   -1.75548333657337530e+01    2.21521400802427415e+01    9.33276355932285462e+00   -4.78920702559382621e-06   -3.17851579289114075e-06   -1.37506909670985119e-06
2046-11-22T23:02:39.117608     1.20134858629587546e+08    8.21950226596325040e+07    3.55402680838753060e+07   -1.79018451725950882e+01    2.19182973111503863e+01    9.23162622508402464e+00   -4.73924648449298582e-06   -3.24248261930440673e-06   -1.40202191054084403e-06
2046-11-23T19:16:34.783633     1.18818439769403204e+08    8.37827995704976618e+07    3.62089171952567622e+07   -1.82451810882484544e+01    2.16798191931361615e+01    9.12853603137503455e+00   -4.68827208889663355e-06   -3.30579587315289319e-06   -1.42869183585136669e-06
2046-11-24T15:30:30.449656     1.17477149915176347e+08    8.53530394309842885e+07    3.68699871815227941e+07   -1.85847676279018117e+01    2.14367538342284938e+01    9.02351379534681008e+00   -4.63629375682433139e-06   -3.36844171290142043e-06   -1.45507303662226880e-06
2046-11-25T11:44:26.115680     1.16111264789575845e+08    8.69054098763354868e+07    3.75233380781406686e+07   -1.89205320366201200e+01    2.11891503470746194e+01    8.91658075768338243e+00   -4.58332161354984992e-06   -3.43040639675954771e-06   -1.48115972015455461e-06
2046-11-26T07:58:21.781704     1.14721065397556052e+08    8.84395821716682911e+07    3.81688314899907410e+07   -1.92524023048402633e+01    2.09370588411444949e+01    8.80775857921809546e+00   -4.52936600259203740e-06   -3.49167629682434173e-06   -1.50694614315480746e-06
2046-11-27T04:12:17.447728     1.13306837975146428e+08    8.99552312912864983e+07    3.88063306248364300e+07   -1.95803071845716232e+01    2.06805304140007671e+01    8.69706933714808272e+00   -4.47443749355178293e-06   -3.55223791058526476e-06   -1.53242661668146355e-06
2046-11-28T00:26:13.113751     1.11868873930340648e+08    9.14520359851653874e+07    3.94357003213007152e+07   -1.99041762060522878e+01    2.04196171418270112e+01    8.58453552093004113e+00   -4.41854688678500405e-06   -3.61207786978391352e-06   -1.55759550994867694e-06
2046-11-28T20:40:08.779775     1.10407469778697148e+08    9.29296788373531699e+07    4.00568070733796656e+07   -2.02239396946309711e+01    2.01543720694066160e+01    8.47018002794039049e+00   -4.36170521492951930e-06   -3.67118294664146088e-06   -1.58244725299339449e-06
2046-11-29T16:54:04.445799     1.08922927076262653e+08    9.43878463210340440e+07    4.06695190535234213e+07   -2.05395287876446417e+01    1.98848491997446040e+01    8.35402615898286349e+00   -4.30392374125674842e-06   -3.72954005743271226e-06   -1.60697633819651203e-06
2046-11-30T13:08:00.111822     1.07415552352431059e+08    9.58262288549976051e+07    4.12737061363153309e+07   -2.08508754510619028e+01    1.96111034835247047e+01    8.23609761372655669e+00   -4.24521395488831314e-06   -3.78713626343689797e-06   -1.63117732067112797e-06
2046-12-01T09:21:55.777847     1.05885657045348972e+08    9.72445208662594557e+07    4.18692399247794896e+07   -2.11579124956621811e+01    1.93331908085939794e+01    8.11641848615752792e+00   -4.18558756284567408e-06   -3.84395876923852003e-06   -1.65504481750633393e-06
2046-12-02T05:35:51.443870     1.04333557442480430e+08    9.86424208635781109e+07    4.24559937813475057e+07   -2.14605735925207135e+01    1.90511679896673449e+01    7.99501326012698765e+00   -4.12505647891360084e-06   -3.89999491837106176e-06   -1.67857350586352450e-06
